{
  "type": "FeatureCollection",
  "features": [
    {
      "type": "Feature",
      "properties": {
        "norad_id": 34845,
        "name": "COSMOS 2251 DEB",
        "group": "cosmos-2251-debris",
        "lat": -28.64790468723246,
        "lon": 156.14494590710868,
        "alt_km": 729.3230464315966,
        "timestamp": "2025-12-03T17:47:51.113562+00:00",
        "meta_object_name": "COSMOS 2251 DEB",
        "meta_object_id": "1993-036ABP",
        "meta_epoch": "2025-11-28T06:44:43.474272",
        "meta_mean_motion": 14.45815545,
        "meta_eccentricity": 0.00217969,
        "meta_inclination": 74.024,
        "meta_ra_of_asc_node": 175.3373,
        "meta_arg_of_pericenter": 338.6212,
        "meta_mean_anomaly": 21.4033,
        "meta_ephemeris_type": 0,
        "meta_classification_type": "U",
        "meta_norad_cat_id": 34845,
        "meta_element_set_no": 999,
        "meta_rev_at_epoch": 87257,
        "meta_bstar": 0.00025523358,
        "meta_mean_motion_dot": 8.81e-06,
        "meta_mean_motion_ddot": 0,
        "tle_line1": "1 34845U 93036ABP 25332.28105873  .00000881  00000+0  25523-3 0  9990",
        "tle_line2": "2 34845  74.0240 175.3373 0021796 338.6212  21.4033 14.45815545872576"
      },
      "geometry": {
        "type": "Point",
        "coordinates": [
          156.14494590710868,
          -28.64790468723246
        ]
      }
    },
    {
      "type": "Feature",
      "properties": {
        "norad_id": 34846,
        "name": "COSMOS 2251 DEB",
        "group": "cosmos-2251-debris",
        "lat": -44.11854932806972,
        "lon": 114.72245370379184,
        "alt_km": 750.5565314403157,
        "timestamp": "2025-12-03T17:47:51.113572+00:00",
        "meta_object_name": "COSMOS 2251 DEB",
        "meta_object_id": "1993-036ABQ",
        "meta_epoch": "2025-12-03T06:47:55.151808",
        "meta_mean_motion": 14.47107786,
        "meta_eccentricity": 0.0025889,
        "meta_inclination": 74.0309,
        "meta_ra_of_asc_node": 279.4577,
        "meta_arg_of_pericenter": 347.1109,
        "meta_mean_anomaly": 12.9384,
        "meta_ephemeris_type": 0,
        "meta_classification_type": "U",
        "meta_norad_cat_id": 34846,
        "meta_element_set_no": 999,
        "meta_rev_at_epoch": 87267,
        "meta_bstar": 0.0014206,
        "meta_mean_motion_dot": 5.177e-05,
        "meta_mean_motion_ddot": 0,
        "tle_line1": "1 34846U 93036ABQ 25337.28327722  .00005177  00000+0  14206-2 0  9993",
        "tle_line2": "2 34846  74.0309 279.4577 0025889 347.1109  12.9384 14.47107786872670"
      },
      "geometry": {
        "type": "Point",
        "coordinates": [
          114.72245370379184,
          -44.11854932806972
        ]
      }
    },
    {
      "type": "Feature",
      "properties": {
        "norad_id": 34852,
        "name": "COSMOS 2251 DEB",
        "group": "cosmos-2251-debris",
        "lat": -72.00757793680116,
        "lon": 161.35520215890284,
        "alt_km": 781.605198936837,
        "timestamp": "2025-12-03T17:47:51.113595+00:00",
        "meta_object_name": "COSMOS 2251 DEB",
        "meta_object_id": "1993-036ABW",
        "meta_epoch": "2025-12-02T05:29:46.536576",
        "meta_mean_motion": 14.36991388,
        "meta_eccentricity": 0.0015746,
        "meta_inclination": 74.0326,
        "meta_ra_of_asc_node": 282.3019,
        "meta_arg_of_pericenter": 28.2884,
        "meta_mean_anomaly": 331.9121,
        "meta_ephemeris_type": 0,
        "meta_classification_type": "U",
        "meta_norad_cat_id": 34852,
        "meta_element_set_no": 999,
        "meta_rev_at_epoch": 87383,
        "meta_bstar": 0.00017468,
        "meta_mean_motion_dot": 4.92e-06,
        "meta_mean_motion_ddot": 0,
        "tle_line1": "1 34852U 93036ABW 25336.22901084  .00000492  00000+0  17468-3 0  9991",
        "tle_line2": "2 34852  74.0326 282.3019 0015746  28.2884 331.9121 14.36991388873837"
      },
      "geometry": {
        "type": "Point",
        "coordinates": [
          161.35520215890284,
          -72.00757793680116
        ]
      }
    },
    {
      "type": "Feature",
      "properties": {
        "norad_id": 34854,
        "name": "COSMOS 2251 DEB",
        "group": "cosmos-2251-debris",
        "lat": -33.067637203804864,
        "lon": 165.47329610451908,
        "alt_km": 608.4910373808698,
        "timestamp": "2025-12-03T17:47:51.113608+00:00",
        "meta_object_name": "COSMOS 2251 DEB",
        "meta_object_id": "1993-036ABY",
        "meta_epoch": "2025-12-01T22:02:46.134528",
        "meta_mean_motion": 14.76470003,
        "meta_eccentricity": 0.00662316,
        "meta_inclination": 74.0289,
        "meta_ra_of_asc_node": 179.791,
        "meta_arg_of_pericenter": 293.6475,
        "meta_mean_anomaly": 65.7756,
        "meta_ephemeris_type": 0,
        "meta_classification_type": "U",
        "meta_norad_cat_id": 34854,
        "meta_element_set_no": 999,
        "meta_rev_at_epoch": 71722,
        "meta_bstar": 0.00065989077,
        "meta_mean_motion_dot": 4.729e-05,
        "meta_mean_motion_ddot": 0,
        "tle_line1": "1 34854U 93036ABY 25335.91858952  .00004729  00000+0  65989-3 0  9991",
        "tle_line2": "2 34854  74.0289 179.7910 0066231 293.6475  65.7756 14.76470003717221"
      },
      "geometry": {
        "type": "Point",
        "coordinates": [
          165.47329610451908,
          -33.067637203804864
        ]
      }
    },
    {
      "type": "Feature",
      "properties": {
        "norad_id": 34856,
        "name": "COSMOS 2251 DEB",
        "group": "cosmos-2251-debris",
        "lat": 3.633158429317309,
        "lon": -77.69893124189049,
        "alt_km": 542.6881156989102,
        "timestamp": "2025-12-03T17:47:51.113618+00:00",
        "meta_object_name": "COSMOS 2251 DEB",
        "meta_object_id": "1993-036ACA",
        "meta_epoch": "2025-12-02T11:02:06.604224",
        "meta_mean_motion": 15.05140167,
        "meta_eccentricity": 0.00347835,
        "meta_inclination": 73.9965,
        "meta_ra_of_asc_node": 105.9765,
        "meta_arg_of_pericenter": 243.8774,
        "meta_mean_anomaly": 190.0896,
        "meta_ephemeris_type": 0,
        "meta_classification_type": "U",
        "meta_norad_cat_id": 34856,
        "meta_element_set_no": 999,
        "meta_rev_at_epoch": 88957,
        "meta_bstar": 0.0024540063,
        "meta_mean_motion_dot": 0.00035572,
        "meta_mean_motion_ddot": 0,
        "tle_line1": "1 34856U 93036ACA 25336.45979866  .00035572  00000+0  24540-2 0  9998",
        "tle_line2": "2 34856  73.9965 105.9765 0034783 243.8774 190.0896 15.05140167889570"
      },
      "geometry": {
        "type": "Point",
        "coordinates": [
          -77.69893124189049,
          3.633158429317309
        ]
      }
    },
    {
      "type": "Feature",
      "properties": {
        "norad_id": 34857,
        "name": "COSMOS 2251 DEB",
        "group": "cosmos-2251-debris",
        "lat": -72.64223837390004,
        "lon": 10.496932302012752,
        "alt_km": 658.5994723257872,
        "timestamp": "2025-12-03T17:47:51.113629+00:00",
        "meta_object_name": "COSMOS 2251 DEB",
        "meta_object_id": "1993-036ACB",
        "meta_epoch": "2025-12-03T10:09:05.618016",
        "meta_mean_motion": 14.58723302,
        "meta_eccentricity": 0.0066206,
        "meta_inclination": 74.0144,
        "meta_ra_of_asc_node": 124.597,
        "meta_arg_of_pericenter": 250.6702,
        "meta_mean_anomaly": 139.992,
        "meta_ephemeris_type": 0,
        "meta_classification_type": "U",
        "meta_norad_cat_id": 34857,
        "meta_element_set_no": 999,
        "meta_rev_at_epoch": 87765,
        "meta_bstar": 0.0016741,
        "meta_mean_motion_dot": 8.033e-05,
        "meta_mean_motion_ddot": 0,
        "tle_line1": "1 34857U 93036ACB 25337.42298169  .00008033  00000+0  16741-2 0  9993",
        "tle_line2": "2 34857  74.0144 124.5970 0066206 250.6702 139.9920 14.58723302877650"
      },
      "geometry": {
        "type": "Point",
        "coordinates": [
          10.496932302012752,
          -72.64223837390004
        ]
      }
    },
    {
      "type": "Feature",
      "properties": {
        "norad_id": 34859,
        "name": "COSMOS 2251 DEB",
        "group": "cosmos-2251-debris",
        "lat": -58.657540146898164,
        "lon": -153.61691173046293,
        "alt_km": 535.0191467410114,
        "timestamp": "2025-12-03T17:47:51.113640+00:00",
        "meta_object_name": "COSMOS 2251 DEB",
        "meta_object_id": "1993-036ACD",
        "meta_epoch": "2025-12-03T12:38:16.175904",
        "meta_mean_motion": 15.12289472,
        "meta_eccentricity": 0.0004547,
        "meta_inclination": 74.0347,
        "meta_ra_of_asc_node": 358.789,
        "meta_arg_of_pericenter": 317.5487,
        "meta_mean_anomaly": 195.1552,
        "meta_ephemeris_type": 0,
        "meta_classification_type": "U",
        "meta_norad_cat_id": 34859,
        "meta_element_set_no": 999,
        "meta_rev_at_epoch": 88219,
        "meta_bstar": 0.0058122,
        "meta_mean_motion_dot": 0.0010206,
        "meta_mean_motion_ddot": 0,
        "tle_line1": "1 34859U 93036ACD 25337.52657611  .00102060  00000+0  58122-2 0  9991",
        "tle_line2": "2 34859  74.0347 358.7890 0004547 317.5487 195.1552 15.12289472882198"
      },
      "geometry": {
        "type": "Point",
        "coordinates": [
          -153.61691173046293,
          -58.657540146898164
        ]
      }
    }
  ]
}